{
  "type": "FeatureCollection",
  "features": [
    {
      "type": "Feature",
      "properties": {
        "norad_id": 34885,
        "name": "COSMOS 2251 DEB",
        "group": "cosmos-2251-debris",
        "lat": -16.043935981292954,
        "lon": 24.549307563449634,
        "alt_km": 725.2084637095404,
        "timestamp": "2025-12-03T19:33:07.372705+00:00",
        "meta_object_name": "COSMOS 2251 DEB",
        "meta_object_id": "1993-036ACY",
        "meta_epoch": "2025-12-03T01:01:17.738688",
        "meta_mean_motion": 14.5142198,
        "meta_eccentricity": 0.00154658,
        "meta_inclination": 74.0311,
        "meta_ra_of_asc_node": 201.2789,
        "meta_arg_of_pericenter": 287.0539,
        "meta_mean_anomaly": 197.0279,
        "meta_ephemeris_type": 0,
        "meta_classification_type": "U",
        "meta_norad_cat_id": 34885,
        "meta_element_set_no": 999,
        "meta_rev_at_epoch": 87338,
        "meta_bstar": 0.00082938921,
        "meta_mean_motion_dot": 3.288e-05,
        "meta_mean_motion_ddot": 0,
        "tle_line1": "1 34885U 93036ACY 25337.04256642  .00003288  00000+0  82939-3 0  9992",
        "tle_line2": "2 34885  74.0311 201.2789 0015465 287.0539 197.0279 14.51421980873389"
      },
      "geometry": {
        "type": "Point",
        "coordinates": [
          24.549307563449634,
          -16.043935981292954
        ]
      }
    },
    {
      "type": "Feature",
      "properties": {
        "norad_id": 34886,
        "name": "COSMOS 2251 DEB",
        "group": "cosmos-2251-debris",
        "lat": 27.26342108970083,
        "lon": -151.15485592035378,
        "alt_km": 432.6200033608393,
        "timestamp": "2025-12-03T19:33:07.372715+00:00",
        "meta_object_name": "COSMOS 2251 DEB",
        "meta_object_id": "1993-036ACZ",
        "meta_epoch": "2025-12-02T21:33:25.254144",
        "meta_mean_motion": 15.36781254,
        "meta_eccentricity": 0.00310818,
        "meta_inclination": 73.9522,
        "meta_ra_of_asc_node": 202.2947,
        "meta_arg_of_pericenter": 28.5971,
        "meta_mean_anomaly": 331.6931,
        "meta_ephemeris_type": 0,
        "meta_classification_type": "U",
        "meta_norad_cat_id": 34886,
        "meta_element_set_no": 999,
        "meta_rev_at_epoch": 62847,
        "meta_bstar": 0.0022652604,
        "meta_mean_motion_dot": 0.00083623,
        "meta_mean_motion_ddot": 0,
        "tle_line1": "1 34886U 93036ACZ 25336.89820896  .00083623  00000+0  22653-2 0  9990",
        "tle_line2": "2 34886  73.9522 202.2947 0031081  28.5971 331.6931 15.36781254628475"
      },
      "geometry": {
        "type": "Point",
        "coordinates": [
          -151.15485592035378,
          27.26342108970083
        ]
      }
    },
    {
      "type": "Feature",
      "properties": {
        "norad_id": 34907,
        "name": "COSMOS 2251 DEB",
        "group": "cosmos-2251-debris",
        "lat": -56.87151762004847,
        "lon": -86.08625952141696,
        "alt_km": 467.9824439668955,
        "timestamp": "2025-12-03T19:33:07.372724+00:00",
        "meta_object_name": "COSMOS 2251 DEB",
        "meta_object_id": "1993-036ADC",
        "meta_epoch": "2025-12-03T07:33:59.709024",
        "meta_mean_motion": 15.36059766,
        "meta_eccentricity": 0.0017302,
        "meta_inclination": 73.9746,
        "meta_ra_of_asc_node": 68.8586,
        "meta_arg_of_pericenter": 354.083,
        "meta_mean_anomaly": 6.0168,
        "meta_ephemeris_type": 0,
        "meta_classification_type": "U",
        "meta_norad_cat_id": 34907,
        "meta_element_set_no": 999,
        "meta_rev_at_epoch": 87828,
        "meta_bstar": 0.0090238,
        "meta_mean_motion_dot": 0.00332594,
        "meta_mean_motion_ddot": 0,
        "tle_line1": "1 34907U 93036ADC 25337.31527441  .00332594  00000+0  90238-2 0  9990",
        "tle_line2": "2 34907  73.9746  68.8586 0017302 354.0830   6.0168 15.36059766878280"
      },
      "geometry": {
        "type": "Point",
        "coordinates": [
          -86.08625952141696,
          -56.87151762004847
        ]
      }
    },
    {
      "type": "Feature",
      "properties": {
        "norad_id": 34908,
        "name": "COSMOS 2251 DEB",
        "group": "cosmos-2251-debris",
        "lat": -9.70066467766725,
        "lon": 37.25607650083204,
        "alt_km": 760.8380492783535,
        "timestamp": "2025-12-03T19:33:07.372734+00:00",
        "meta_object_name": "COSMOS 2251 DEB",
        "meta_object_id": "1993-036ADD",
        "meta_epoch": "2025-12-03T11:19:03.946944",
        "meta_mean_motion": 14.37353122,
        "meta_eccentricity": 0.0039845,
        "meta_inclination": 74.0586,
        "meta_ra_of_asc_node": 40.6868,
        "meta_arg_of_pericenter": 59.9584,
        "meta_mean_anomaly": 315.8694,
        "meta_ephemeris_type": 0,
        "meta_classification_type": "U",
        "meta_norad_cat_id": 34908,
        "meta_element_set_no": 999,
        "meta_rev_at_epoch": 87146,
        "meta_bstar": 0.00072639,
        "meta_mean_motion_dot": 2.163e-05,
        "meta_mean_motion_ddot": 0,
        "tle_line1": "1 34908U 93036ADD 25337.47157346  .00002163  00000+0  72639-3 0  9993",
        "tle_line2": "2 34908  74.0586  40.6868 0039845  59.9584 315.8694 14.37353122871460"
      },
      "geometry": {
        "type": "Point",
        "coordinates": [
          37.25607650083204,
          -9.70066467766725
        ]
      }
    },
    {
      "type": "Feature",
      "properties": {
        "norad_id": 34909,
        "name": "COSMOS 2251 DEB",
        "group": "cosmos-2251-debris",
        "lat": -73.88818889208542,
        "lon": -2.920541722652241,
        "alt_km": 595.1889816661251,
        "timestamp": "2025-12-03T19:33:07.372744+00:00",
        "meta_object_name": "COSMOS 2251 DEB",
        "meta_object_id": "1993-036ADE",
        "meta_epoch": "2025-12-02T16:20:39.593184",
        "meta_mean_motion": 14.77677518,
        "meta_eccentricity": 0.00852182,
        "meta_inclination": 74.0135,
        "meta_ra_of_asc_node": 96.3432,
        "meta_arg_of_pericenter": 234.3085,
        "meta_mean_anomaly": 125.0138,
        "meta_ephemeris_type": 0,
        "meta_classification_type": "U",
        "meta_norad_cat_id": 34909,
        "meta_element_set_no": 999,
        "meta_rev_at_epoch": 66703,
        "meta_bstar": 0.00090528683,
        "meta_mean_motion_dot": 6.857e-05,
        "meta_mean_motion_ddot": 0,
        "tle_line1": "1 34909U 93036ADE 25336.68101381  .00006857  00000+0  90529-3 0  9996",
        "tle_line2": "2 34909  74.0135  96.3432 0085218 234.3085 125.0138 14.77677518667038"
      },
      "geometry": {
        "type": "Point",
        "coordinates": [
          -2.920541722652241,
          -73.88818889208542
        ]
      }
    },
    {
      "type": "Feature",
      "properties": {
        "norad_id": 34910,
        "name": "COSMOS 2251 DEB",
        "group": "cosmos-2251-debris",
        "lat": 41.046486535800376,
        "lon": 130.09776046192667,
        "alt_km": 1455.9421530285235,
        "timestamp": "2025-12-03T19:33:07.372754+00:00",
        "meta_object_name": "COSMOS 2251 DEB",
        "meta_object_id": "1993-036ADF",
        "meta_epoch": "2025-12-02T16:32:32.334432",
        "meta_mean_motion": 13.37643089,
        "meta_eccentricity": 0.0468107,
        "meta_inclination": 73.8742,
        "meta_ra_of_asc_node": 117.2836,
        "meta_arg_of_pericenter": 237.8282,
        "meta_mean_anomaly": 146.7075,
        "meta_ephemeris_type": 0,
        "meta_classification_type": "U",
        "meta_norad_cat_id": 34910,
        "meta_element_set_no": 999,
        "meta_rev_at_epoch": 81390,
        "meta_bstar": 0.001305183,
        "meta_mean_motion_dot": 1.267e-05,
        "meta_mean_motion_ddot": 0,
        "tle_line1": "1 34910U 93036ADF 25336.68926313  .00001267  00000+0  13052-2 0  9993",
        "tle_line2": "2 34910  73.8742 117.2836 0468107 237.8282 146.7075 13.37643089813901"
      },
      "geometry": {
        "type": "Point",
        "coordinates": [
          130.09776046192667,
          41.046486535800376
        ]
      }
    },
    {
      "type": "Feature",
      "properties": {
        "norad_id": 34911,
        "name": "COSMOS 2251 DEB",
        "group": "cosmos-2251-debris",
        "lat": -51.003044117320584,
        "lon": 102.44925847636237,
        "alt_km": 755.3769281743753,
        "timestamp": "2025-12-03T19:33:07.372764+00:00",
        "meta_object_name": "COSMOS 2251 DEB",
        "meta_object_id": "1993-036ADG",
        "meta_epoch": "2025-12-03T06:00:27.635040",
        "meta_mean_motion": 14.59344505,
        "meta_eccentricity": 0.008317,
        "meta_inclination": 74.0412,
        "meta_ra_of_asc_node": 262.8282,
        "meta_arg_of_pericenter": 30.7099,
        "meta_mean_anomaly": 119.8806,
        "meta_ephemeris_type": 0,
        "meta_classification_type": "U",
        "meta_norad_cat_id": 34911,
        "meta_element_set_no": 999,
        "meta_rev_at_epoch": 88448,
        "meta_bstar": 0.00027459,
        "meta_mean_motion_dot": 1.332e-05,
        "meta_mean_motion_ddot": 0,
        "tle_line1": "1 34911U 93036ADG 25337.25031985  .00001332  00000+0  27459-3 0  9990",
        "tle_line2": "2 34911  74.0412 262.8282 0083170  30.7099 119.8806 14.59344505884480"
      },
      "geometry": {
        "type": "Point",
        "coordinates": [
          102.44925847636237,
          -51.003044117320584
        ]
      }
    }
  ]
}